NORAD_CAT_ID,OBJECT_NAME,OBJECT_TYPE,EPOCH,MEAN_MOTION,ECCENTRICITY,INCLINATION,RA_OF_ASC_NODE,ARG_OF_PERICENTER,MEAN_ANOMALY,BSTAR,MEAN_MOTION_DOT,MEAN_MOTION_DDOT,TLE_LINE0,TLE_LINE1,TLE_LINE2,SEMIMAJOR_AXIS,PERIOD,APOGEE,PERIGEE,DECAYED
55772.0,STARLINK-5835,PAYLOAD,2023-10-28 12:54:45,14.98330125,0.0002955,69.9995,240.6718,270.2339,89.8481,-7.9862e-05,-1.046e-05,0.0,0 STARLINK-5835,1 55772U 23028AH  23301.53802388 -.00001046  00000-0 -79862-4 0  9996,2 55772  69.9995 240.6718 0002955 270.2339  89.8481 14.98330125 37240,6950.193,96.107,574.111,570.004,0.0
55772.0,STARLINK-5835,PAYLOAD,2023-10-28 22:31:33,14.98356227,0.0002981,69.9996,239.6612,277.41,82.672,-0.0004547,-5.518e-05,0.0,0 STARLINK-5835,1 55772U 23028AH  23301.93858032 -.00005518  00000-0 -45470-3 0  9992,2 55772  69.9996 239.6612 0002981 277.4100  82.6720 14.98356227 37301,6950.112,96.105,574.049,569.905,0.0
55772.0,STARLINK-5835,PAYLOAD,2023-10-29 03:19:57,14.98349066,0.0002491,70.0004,239.1573,273.3142,86.7732,-0.00016876,-2.107e-05,0.0,0 STARLINK-5835,1 55772U 23028AH  23302.13885469 -.00002107  00000-0 -16876-3 0  9998,2 55772  70.0004 239.1573 0002491 273.3142  86.7732 14.98349066 37336,6950.134,96.106,573.73,570.268,0.0
55772.0,STARLINK-5835,PAYLOAD,2023-10-29 12:56:45,14.98355835,0.0001963,70.0004,238.1451,293.2407,66.8546,-0.00058002,-7.011e-05,0.0,0 STARLINK-5835,1 55772U 23028AH  23302.53942012 -.00007011  00000-0 -58002-3 0  9996,2 55772  70.0004 238.1451 0001963 293.2407  66.8546 14.98355835 37397,6950.113,96.105,573.342,570.614,0.0
55772.0,STARLINK-5835,PAYLOAD,2023-10-29 19:21:18,14.98321613,0.0002944,69.9998,237.4733,274.8396,85.2427,2.844e-05,2.46e-06,0.0,0 STARLINK-5835,1 55772U 23028AH  23302.80646541  .00000246  00000-0  28440-4 0  9999,2 55772  69.9998 237.4733 0002944 274.8396  85.2427 14.98321613 37438,6950.219,96.108,574.13,570.038,0.0
55772.0,STARLINK-5835,PAYLOAD,2023-10-29 22:33:34,14.98322456,0.0002939,69.9998,237.1367,274.5263,85.556,3.5376e-05,3.29e-06,0.0,0 STARLINK-5835,1 55772U 23028AH  23302.93998525  .00000329  00000-0  35376-4 0  9993,2 55772  69.9998 237.1367 0002939 274.5263  85.5560 14.98322456 37451,6950.216,96.107,574.124,570.039,0.0
55772.0,STARLINK-5835,PAYLOAD,2023-10-30 20:59:27,14.9832347,0.0002931,70.0013,234.7806,274.2337,85.8487,-5.9188e-05,-7.99e-06,0.0,0 STARLINK-5835,1 55772U 23028AH  23303.87462938 -.00000799  00000-0 -59188-4 0  9991,2 55772  70.0013 234.7806 0002931 274.2337  85.8487 14.98323470 37597,6950.213,96.107,574.115,570.041,0.0
55772.0,STARLINK-5835,PAYLOAD,2023-10-30 22:35:36,14.98314932,0.0002521,70.0012,234.6121,262.9729,97.1143,-0.00015246,-1.911e-05,0.0,0 STARLINK-5835,1 55772U 23028AH  23303.94139707 -.00001911  00000-0 -15246-3 0  9997,2 55772  70.0012 234.6121 0002521 262.9729  97.1143 14.98314932 37609,6950.239,96.108,573.857,570.352,0.0
55772.0,STARLINK-5835,PAYLOAD,2023-10-31 03:23:57,14.98362785,0.0002577,70.0009,234.1072,258.5118,101.5752,0.00034213,3.995e-05,0.0,0 STARLINK-5835,1 55772U 23028AH  23304.14163654  .00003995  00000-0  34213-3 0  9995,2 55772  70.0009 234.1072 0002577 258.5118 101.5752 14.98362785 37637,6950.092,96.105,573.748,570.165,0.0
55772.0,STARLINK-5835,PAYLOAD,2023-10-31 05:00:07,14.98329941,0.0002541,70.0009,233.9385,264.6868,95.4001,-3.0276e-06,-1.29e-06,0.0,0 STARLINK-5835,1 55772U 23028AH  23304.20842458 -.00000129  00000-0 -30276-5 0  9993,2 55772  70.0009 233.9385 0002541 264.6868  95.4001 14.98329941 37648,6950.193,96.107,573.824,570.292,0.0
55772.0,STARLINK-5835,PAYLOAD,2023-10-31 13:00:48,14.98320786,0.0002366,70.0014,233.097,268.574,91.5148,3.0918e-05,2.76e-06,0.0,0 STARLINK-5835,1 55772U 23028AH  23304.54223113  .00000276  00000-0  30918-4 0  9994,2 55772  70.0014 233.0970 0002366 268.5740  91.5148 14.98320786 37694,6950.221,96.108,573.731,570.442,0.0
55772.0,STARLINK-5835,PAYLOAD,2023-10-31 22:37:36,14.98325985,0.0002908,70.0007,232.0877,272.5941,87.4885,4.5051e-05,4.45e-06,0.0,0 STARLINK-5835,1 55772U 23028AH  23304.94278667  .00000445  00000-0  45051-4 0  9994,2 55772  70.0007 232.0877 0002908 272.5941  87.4885 14.98325985 37756,6950.205,96.107,574.091,570.049,0.0
55772.0,STARLINK-5835,PAYLOAD,2023-11-01 05:02:08,14.98330649,0.0002705,70.001,231.4148,261.0941,98.9911,6.1079e-05,6.36e-06,0.0,0 STARLINK-5835,1 55772U 23028AH  23305.20982297  .00000636  00000-0  61079-4 0  9995,2 55772  70.0010 231.4148 0002705 261.0941  98.9911 14.98330649 37796,6950.191,96.107,573.936,570.176,0.0
55772.0,STARLINK-5835,PAYLOAD,2023-11-01 13:02:49,14.98332689,0.00026,70.0016,230.5725,278.264,81.8225,4.0981e-05,3.96e-06,0.0,0 STARLINK-5835,1 55772U 23028AH  23305.54362345  .00000396  00000-0  40981-4 0  9990,2 55772  70.0016 230.5725 0002600 278.2640  81.8225 14.98332689 37844,6950.185,96.107,573.857,570.243,0.0
55772.0,STARLINK-5835,PAYLOAD,2023-11-01 22:39:37,14.98325904,0.0002892,70.0006,229.5624,271.8394,88.2434,8.2471e-05,8.91e-06,0.0,0 STARLINK-5835,1 55772U 23028AH  23305.94418558  .00000891  00000-0  82471-4 0  9992,2 55772  70.0006 229.5624 0002892 271.8394  88.2434 14.98325904 37909,6950.206,96.107,574.081,570.061,0.0
55772.0,STARLINK-5835,PAYLOAD,2023-11-02 05:04:09,14.98332158,0.0002779,70.001,228.8894,272.658,87.426,9.1131e-05,9.95e-06,0.0,0 STARLINK-5835,1 55772U 23028AH  23306.21122182  .00000995  00000-0  91131-4 0  9996,2 55772  70.0010 228.8894 0002779 272.6580  87.4260 14.98332158 37946,6950.186,96.107,573.983,570.12,0.0
55772.0,STARLINK-5835,PAYLOAD,2023-11-02 21:05:30,14.9833249,0.0002586,70.0014,227.2075,271.9242,88.1621,1.1858e-05,4.9e-07,0.0,0 STARLINK-5835,1 55772U 23028AH  23306.87882326  .00000049  00000-0  11858-4 0  9999,2 55772  70.0014 227.2075 0002586 271.9242  88.1621 14.98332490 38047,6950.185,96.107,573.848,570.253,0.0
55772.0,STARLINK-5835,PAYLOAD,2023-11-03 05:06:10,14.98335685,0.0002468,70.0015,226.3667,254.4677,105.6209,5.5186e-05,5.66e-06,0.0,0 STARLINK-5835,1 55772U 23028AH  23307.21261840  .00000566  00000-0  55186-4 0  9996,2 55772  70.0015 226.3667 0002468 254.4677 105.6209 14.98335685 38093,6950.175,96.107,573.756,570.325,0.0
55772.0,STARLINK-5835,PAYLOAD,2023-11-03 11:30:43,14.98331624,0.0002332,70.0024,225.6932,273.7368,86.3524,-3.1048e-05,-4.63e-06,0.0,0 STARLINK-5835,1 55772U 23028AH  23307.47966445 -.00000463  00000-0 -31048-4 0  9996,2 55772  70.0024 225.6932 0002332 273.7368  86.3524 14.98331624 38130,6950.188,96.107,573.674,570.432,0.0
55772.0,STARLINK-5835,PAYLOAD,2023-11-03 22:43:39,14.98332694,0.0002457,70.0019,224.5141,270.8123,89.2754,-6.2282e-06,-1.67e-06,0.0,0 STARLINK-5835,1 55772U 23028AH  23307.94698137 -.00000167  00000-0 -62282-5 0  9994,2 55772  70.0019 224.5141 0002457 270.8123  89.2754 14.98332694 38202,6950.185,96.107,573.757,570.342,0.0
55772.0,STARLINK-5835,PAYLOAD,2023-11-04 11:32:43,14.98352621,0.000216,70.0012,223.1661,283.32,76.7718,-0.00050561,-6.124e-05,0.0,0 STARLINK-5835,1 55772U 23028AH  23308.48106043 -.00006124  00000-0 -50561-3 0  9998,2 55772  70.0012 223.1661 0002160 283.3200  76.7718 14.98352621 38284,6950.123,96.106,573.489,570.487,0.0
55772.0,STARLINK-5835,PAYLOAD,2023-11-04 21:09:32,14.98328057,0.0002769,70.0012,222.1571,267.2979,92.7863,-3.1526e-05,-4.69e-06,0.0,0 STARLINK-5835,1 55772U 23028AH  23308.88162316 -.00000469  00000-0 -31526-4 0  9994,2 55772  70.0012 222.1571 0002769 267.2979  92.7863 14.98328057 38344,6950.199,96.107,573.988,570.139,0.0
55772.0,STARLINK-5835,PAYLOAD,2023-11-04 22:45:39,14.98332929,0.0002573,70.0012,221.9902,264.6577,95.4289,9.281e-06,1.8e-07,0.0,0 STARLINK-5835,1 55772U 23028AH  23308.94837924  .00000018  00000-0  92810-5 0  9997,2 55772  70.0012 221.9902 0002573 264.6577  95.4289 14.98332929 38353,6950.184,96.107,573.837,570.261,0.0
55772.0,STARLINK-5835,PAYLOAD,2023-11-05 03:34:03,14.98339216,0.0002629,70.001,221.4846,266.4467,93.6392,8.1229e-05,8.77e-06,0.0,0 STARLINK-5835,1 55772U 23028AH  23309.14865284  .00000877  00000-0  81229-4 0  9994,2 55772  70.0010 221.4846 0002629 266.4467  93.6392 14.98339216 38387,6950.164,96.106,573.857,570.202,0.0
55772.0,STARLINK-5835,PAYLOAD,2023-11-05 11:34:43,14.98365839,0.000251,70.0016,220.6424,277.0532,83.0342,-0.00036997,-4.508e-05,0.0,0 STARLINK-5835,1 55772U 23028AH  23309.48244404 -.00004508  00000-0 -36997-3 0  9994,2 55772  70.0016 220.6424 0002510 277.0532  83.0342 14.98365839 38430,6950.082,96.105,573.692,570.203,0.0
55772.0,STARLINK-5835,PAYLOAD,2023-11-05 19:35:23,14.98338268,0.0002925,70.0008,219.8003,274.798,85.2845,0.00016101,1.829e-05,0.0,0 STARLINK-5835,1 55772U 23028AH  23309.81624640  .00001829  00000-0  16101-3 0  9991,2 55772  70.0008 219.8003 0002925 274.7980  85.2845 14.98338268 38488,6950.167,96.106,574.065,569.999,0.0
55772.0,STARLINK-5835,PAYLOAD,2023-11-05 22:47:39,14.9834401,0.0002725,70.0002,219.4638,276.1764,83.9084,0.0001974,2.264e-05,0.0,0 STARLINK-5835,1 55772U 23028AH  23309.94976165  .00002264  00000-0  19740-3 0  9993,2 55772  70.0002 219.4638 0002725 276.1764  83.9084 14.98344010 38501,6950.15,96.106,573.908,570.121,0.0
55772.0,STARLINK-5835,PAYLOAD,2023-11-06 03:36:01,14.9836943,0.0002774,70.0001,218.9587,271.2735,88.8106,0.00039439,4.621e-05,0.0,0 STARLINK-5835,1 55772U 23028AH  23310.15001656  .00004621  00000-0  39439-3 0  9998,2 55772  70.0001 218.9587 0002774 271.2735  88.8106 14.98369430 38530,6950.071,96.104,573.864,570.008,0.0
55772.0,STARLINK-5835,PAYLOAD,2023-11-06 11:36:44,14.98333487,0.0002935,70.0007,218.1174,264.6918,95.3906,-6.994e-05,-9.27e-06,0.0,0 STARLINK-5835,1 55772U 23028AH  23310.48384645 -.00000927  00000-0 -69940-4 0  9994,2 55772  70.0007 218.1174 0002935 264.6918  95.3906 14.98333487 38587,6950.182,96.107,574.087,570.007,0.0
55772.0,STARLINK-5835,PAYLOAD,2023-11-06 19:37:27,14.9830197,0.0002837,70.0007,217.2773,264.0203,96.0632,-0.0003348,-4.082e-05,0.0,0 STARLINK-5835,1 55772U 23028AH  23310.81767604 -.00004082  00000-0 -33480-3 0  9996,2 55772  70.0007 217.2773 0002837 264.0203  96.0632 14.98301970 38636,6950.28,96.109,574.116,570.173,0.0
